[{"OBJECT_NAME":"ONEWEB-0701","OBJECT_ID":"2024-188P","EPOCH":"2026-04-28T07:06:11.104704","MEAN_MOTION":13.1037585,"ECCENTRICITY":0.0001823,"INCLINATION":87.8852,"RA_OF_ASC_NODE":46.1918,"ARG_OF_PERICENTER":52.0739,"MEAN_ANOMALY":308.0553,"EPHEMERIS_TYPE":0,"CLASSIFICATION_TYPE":"U","NORAD_CAT_ID":61607,"ELEMENT_SET_NO":999,"REV_AT_EPOCH":7677,"BSTAR":-0.001275,"MEAN_MOTION_DOT":-4.32e-06,"MEAN_MOTION_DDOT":0.0},{"OBJECT_NAME":"ONEWEB-0702","OBJECT_ID":"2024-188Q","EPOCH":"2026-04-28T06:34:36.274944","MEAN_MOTION":13.1141556,"ECCENTRICITY":0.0001414,"INCLINATION":87.8942,"RA_OF_ASC_NODE":30.9028,"ARG_OF_PERICENTER":44.3242,"MEAN_ANOMALY":315.7999,"EPHEMERIS_TYPE":0,"CLASSIFICATION_TYPE":"U","NORAD_CAT_ID":61608,"ELEMENT_SET_NO":999,"REV_AT_EPOCH":7794,"BSTAR":0.0012708,"MEAN_MOTION_DOT":4.63e-06,"MEAN_MOTION_DDOT":0.0},{"OBJECT_NAME":"ONEWEB-0704","OBJECT_ID":"2024-188R","EPOCH":"2026-04-28T06:49:26.408352","MEAN_MOTION":13.10370595,"ECCENTRICITY":0.000123,"INCLINATION":87.887,"RA_OF_ASC_NODE":46.177,"ARG_OF_PERICENTER":45.7508,"MEAN_ANOMALY":314.372,"EPHEMERIS_TYPE":0,"CLASSIFICATION_TYPE":"U","NORAD_CAT_ID":61609,"ELEMENT_SET_NO":999,"REV_AT_EPOCH":7675,"BSTAR":-0.0017626,"MEAN_MOTION_DOT":-6.03e-06,"MEAN_MOTION_DDOT":0.0},{"OBJECT_NAME":"ONEWEB-0705","OBJECT_ID":"2024-188S","EPOCH":"2026-04-28T06:56:36.282048","MEAN_MOTION":13.1037034,"ECCENTRICITY":7.66e-05,"INCLINATION":87.8861,"RA_OF_ASC_NODE":46.1845,"ARG_OF_PERICENTER":94.5581,"MEAN_ANOMALY":265.5634,"EPHEMERIS_TYPE":0,"CLASSIFICATION_TYPE":"U","NORAD_CAT_ID":61610,"ELEMENT_SET_NO":999,"REV_AT_EPOCH":6892,"BSTAR":-0.0020062,"MEAN_MOTION_DOT":-6.88e-06,"MEAN_MOTION_DDOT":0.0},{"OBJECT_NAME":"ONEWEB-0706","OBJECT_ID":"2024-188T","EPOCH":"2026-04-28T06:35:06.594432","MEAN_MOTION":13.10370604,"ECCENTRICITY":0.0001348,"INCLINATION":87.885,"RA_OF_ASC_NODE":46.1959,"ARG_OF_PERICENTER":66.2301,"MEAN_ANOMALY":293.8968,"EPHEMERIS_TYPE":0,"CLASSIFICATION_TYPE":"U","NORAD_CAT_ID":61611,"ELEMENT_SET_NO":999,"REV_AT_EPOCH":7684,"BSTAR":-0.0007553299999999999,"MEAN_MOTION_DOT":-2.51e-06,"MEAN_MOTION_DDOT":0.0},{"OBJECT_NAME":"ONEWEB-0707","OBJECT_ID":"2024-188U","EPOCH":"2026-04-28T06:44:40.201440","MEAN_MOTION":13.10371448,"ECCENTRICITY":0.0001414,"INCLINATION":87.8857,"RA_OF_ASC_NODE":46.1858,"ARG_OF_PERICENTER":64.1983,"MEAN_ANOMALY":295.929,"EPHEMERIS_TYPE":0,"CLASSIFICATION_TYPE":"U","NORAD_CAT_ID":61612,"ELEMENT_SET_NO":999,"REV_AT_EPOCH":7678,"BSTAR":-0.0017002,"MEAN_MOTION_DOT":-5.81e-06,"MEAN_MOTION_DDOT":0.0},{"OBJECT_NAME":"ONEWEB-0708","OBJECT_ID":"2024-188V","EPOCH":"2026-04-28T07:10:58.387296","MEAN_MOTION":13.10375525,"ECCENTRICITY":0.000152,"INCLINATION":87.8851,"RA_OF_ASC_NODE":46.2051,"ARG_OF_PERICENTER":93.1607,"MEAN_ANOMALY":266.9694,"EPHEMERIS_TYPE":0,"CLASSIFICATION_TYPE":"U","NORAD_CAT_ID":61613,"ELEMENT_SET_NO":999,"REV_AT_EPOCH":7676,"BSTAR":-0.0007868300000000001,"MEAN_MOTION_DOT":-2.62e-06,"MEAN_MOTION_DDOT":0.0}]